{
  "norad_id": 58165,
  "name": "STARLINK-30814",
  "history": [
    {
      "epoch": "2026-03-28T12:04:07.580064Z",
      "apogee_km": 476.1537401108699,
      "perigee_km": 474.36637415836867,
      "latitude_deg": -3.1978824167114544e-06,
      "longitude_deg": 124.99313138214384,
      "height_km": 476.19199012347315,
      "semi_major_axis_km": 6853.397057134619,
      "eccentricity": 0.0001304,
      "inclination_deg": 53.1598,
      "raan_deg": 131.9471,
      "arg_perigee_deg": 92.1759,
      "mean_anomaly_deg": 267.9391,
      "mean_motion_rev_day": 15.30184933
    },
    {
      "epoch": "2026-03-29T08:26:49.058880Z",
      "apogee_km": 476.07161021701904,
      "perigee_km": 474.3996614287835,
      "latitude_deg": -2.1865713328117445e-05,
      "longitude_deg": 174.53908659248503,
      "height_km": 476.18170598004616,
      "semi_major_axis_km": 6853.3726358229005,
      "eccentricity": 0.00012198,
      "inclination_deg": 53.1595,
      "raan_deg": 128.0028,
      "arg_perigee_deg": 93.2901,
      "mean_anomaly_deg": 266.8239,
      "mean_motion_rev_day": 15.30193112
    },
    {
      "epoch": "2026-03-30T09:31:40.265184Z",
      "apogee_km": 476.01208014140775,
      "perigee_km": 474.4747298489592,
      "latitude_deg": -5.3017734041914076e-05,
      "longitude_deg": 152.44096899317486,
      "height_km": 476.2158812504858,
      "semi_major_axis_km": 6853.380404995183,
      "eccentricity": 0.00011216,
      "inclination_deg": 53.1598,
      "raan_deg": 123.1481,
      "arg_perigee_deg": 95.5402,
      "mean_anomaly_deg": 264.5726,
      "mean_motion_rev_day": 15.3019051
    },
    {
      "epoch": "2026-03-30T18:55:59.255328Z",
      "apogee_km": 475.9949825008489,
      "perigee_km": 474.47531576050005,
      "latitude_deg": 3.732286989860744e-05,
      "longitude_deg": 9.157150233622522,
      "height_km": 476.2397812029403,
      "semi_major_axis_km": 6853.372149130674,
      "eccentricity": 0.00011087,
      "inclination_deg": 53.1596,
      "raan_deg": 121.3296,
      "arg_perigee_deg": 98.0478,
      "mean_anomaly_deg": 262.0649,
      "mean_motion_rev_day": 15.30193275
    },
    {
      "epoch": "2026-03-31T18:26:47.427936Z",
      "apogee_km": 475.95324044342124,
      "perigee_km": 474.5400727334327,
      "latitude_deg": 2.2904442166826387e-05,
      "longitude_deg": 10.937961358652231,
      "height_km": 476.0124724632275,
      "semi_major_axis_km": 6853.383656588427,
      "eccentricity": 0.0001031,
      "inclination_deg": 53.1589,
      "raan_deg": 116.7768,
      "arg_perigee_deg": 79.1931,
      "mean_anomaly_deg": 280.9186,
      "mean_motion_rev_day": 15.30189421
    },
    {
      "epoch": "2026-04-01T08:33:16.037568Z",
      "apogee_km": 475.9588459488232,
      "perigee_km": 474.499078998816,
      "latitude_deg": 3.1855981573014126e-05,
      "longitude_deg": 156.01026919197008,
      "height_km": 475.9637950056068,
      "semi_major_axis_km": 6853.365962473819,
      "eccentricity": 0.0001065,
      "inclination_deg": 53.1591,
      "raan_deg": 114.0477,
      "arg_perigee_deg": 77.0589,
      "mean_anomaly_deg": 283.0531,
      "mean_motion_rev_day": 15.30195347
    },
    {
      "epoch": "2026-04-02T08:04:02.087328Z",
      "apogee_km": 475.75720592293237,
      "perigee_km": 474.57514819095377,
      "latitude_deg": -1.8659906347924513e-05,
      "longitude_deg": 157.80222254397657,
      "height_km": 476.0188318805435,
      "semi_major_axis_km": 6853.303177056943,
      "eccentricity": 8.624e-05,
      "inclination_deg": 53.1593,
      "raan_deg": 109.4972,
      "arg_perigee_deg": 85.5453,
      "mean_anomaly_deg": 274.5646,
      "mean_motion_rev_day": 15.30216375
    },
    {
      "epoch": "2026-04-03T07:34:53.059296Z",
      "apogee_km": 476.13400136163455,
      "perigee_km": 474.4453170328079,
      "latitude_deg": -4.1317926596288146e-05,
      "longitude_deg": 159.57373071244942,
      "height_km": 476.2508203632456,
      "semi_major_axis_km": 6853.426659197221,
      "eccentricity": 0.0001232,
      "inclination_deg": 53.1603,
      "raan_deg": 104.9468,
      "arg_perigee_deg": 94.2792,
      "mean_anomaly_deg": 265.8349,
      "mean_motion_rev_day": 15.30175019
    },
    {
      "epoch": "2026-04-04T10:13:46.275456Z",
      "apogee_km": 476.10762296783014,
      "perigee_km": 474.3497346712129,
      "latitude_deg": -2.8407669503606916e-05,
      "longitude_deg": 113.59800665398215,
      "height_km": 476.18629395839747,
      "semi_major_axis_km": 6853.365678819521,
      "eccentricity": 0.00012825,
      "inclination_deg": 53.1595,
      "raan_deg": 99.7872,
      "arg_perigee_deg": 93.8885,
      "mean_anomaly_deg": 266.2262,
      "mean_motion_rev_day": 15.30195442
    },
    {
      "epoch": "2026-04-05T09:44:34.977696Z",
      "apogee_km": 476.1693657564747,
      "perigee_km": 474.4051572830731,
      "latitude_deg": -1.601122667882418e-05,
      "longitude_deg": 115.37942231985159,
      "height_km": 476.18216848768634,
      "semi_major_axis_km": 6853.424261519774,
      "eccentricity": 0.00012871,
      "inclination_deg": 53.16,
      "raan_deg": 95.2372,
      "arg_perigee_deg": 89.7962,
      "mean_anomaly_deg": 270.3186,
      "mean_motion_rev_day": 15.30175822
    },
    {
      "epoch": "2026-04-06T06:07:15.649536Z",
      "apogee_km": 476.1193690791224,
      "perigee_km": 474.3161143794787,
      "latitude_deg": -7.2480266995950875e-06,
      "longitude_deg": 164.92976789186983,
      "height_km": 476.182194429975,
      "semi_major_axis_km": 6853.3547417293,
      "eccentricity": 0.00013156,
      "inclination_deg": 53.1604,
      "raan_deg": 91.2939,
      "arg_perigee_deg": 94.2229,
      "mean_anomaly_deg": 265.8922,
      "mean_motion_rev_day": 15.30199105
    }
  ]
}